HST                     
1 20580U 90037B   26095.62622796  .00009304  00000+0  30389-3 0  9997
2 20580  28.4724 216.1877 0002248  70.2835 289.8004 15.29942321777445
POLAR                   
1 23802U 96013A   26094.86573831  .00000105  00000+0  00000+0 0  9990
2 23802  79.7826 227.8965 6396427 211.5804  85.5310  1.29845718143907
SWAS                    
1 25560U 98071A   26095.91194334  .00004943  00000+0  31726-3 0  9990
2 25560  69.8972  53.8297 0006264 333.1151  26.9687 15.09117272486360
CXO                     
1 25867U 99040B   26097.97612176  .00000867  00000+0  00000+0 0  9992
2 25867  55.0160 118.7490 7949841 310.6166   0.2827  0.37800804 17065
XMM-NEWTON              
1 25989U 99066A   26095.54798203  .00000069  00000+0  00000+0 0  9996
2 25989  64.8516 283.9204 4698499  66.1986   0.0494  0.50130994 22640
TERRA                   
1 25994U 99068A   26095.90241078  .00000594  00000+0  13005-3 0  9993
2 25994  97.9536 148.2897 0003672  95.8461 316.3359 14.61045942399052
CLUSTER II-FM7 (SAMBA)  
1 26410U 00041A   26090.03773165  .00002444  00000+0  00000+0 0  9999
2 26410 149.3581  38.1493 8953066 254.4502   0.4223  0.44796982 19968
CLUSTER II-FM8 (TANGO)  
1 26464U 00045B   26094.11120259  .00003194  00000+0  00000+0 0  9998
2 26464 149.6837  39.5667 8962149 255.7736   0.6086  0.44400104 19975
ODIN                    
1 26702U 01007A   26095.60418383  .00054902  00000+0  64048-3 0  9994
2 26702  97.4006 132.7992 0004379  83.9401 276.2355 15.61468513378037
TIMED                   
1 26998U 01055B   26095.94730290  .00002255  00000+0  20907-3 0  9995
2 26998  74.0711  20.4548 0002559 240.0055 120.0876 14.95125426320026
CORIOLIS                
1 27640U 03001A   26095.97010768  .00000170  00000+0  10067-3 0  9997
2 27640  98.7156 103.9514 0015033  63.3537 296.9177 14.19924022203975
SORCE                   
1 27651U 03004A   26095.93798568  .00003927  00000+0  29414-3 0  9998
2 27651  39.9914 313.7612 0018566 254.9830 104.8909 15.03321670261028
MOST                    
1 27843U 03031D   26095.77269828  .00000117  00000+0  73634-4 0  9997
2 27843  98.7077 104.5025 0010984 100.6115 259.6300 14.21307199180424
SCISAT 1                
1 27858U 03036A   26095.76436327  .00000999  00000+0  13245-3 0  9996
2 27858  73.9299 315.2321 0006471  27.4577 332.6940 14.81365037220726
